NORAD_CAT_ID,OBJECT_NAME,OBJECT_TYPE,EPOCH,MEAN_MOTION,ECCENTRICITY,INCLINATION,RA_OF_ASC_NODE,ARG_OF_PERICENTER,MEAN_ANOMALY,BSTAR,MEAN_MOTION_DOT,MEAN_MOTION_DDOT,TLE_LINE0,TLE_LINE1,TLE_LINE2,SEMIMAJOR_AXIS,PERIOD,APOGEE,PERIGEE,DECAYED
55961.0,STARLINK-5933,PAYLOAD,2023-08-06 22:28:27,15.69944978,0.0002862,70.0005,141.3436,246.3578,113.7318,8.3368e-05,9.831e-05,0.0,0 STARLINK-5933,1 55961U 23037AZ  23218.93643415  .00009831  00000-0  83368-4 0  9995,2 55961  70.0005 141.3436 0002862 246.3578 113.7318 15.69944978 22847,6737.191,91.723,360.985,357.128,0.0
55961.0,STARLINK-5933,PAYLOAD,2023-08-07 04:35:29,15.6990443,0.0002751,70.0008,140.6279,280.0079,80.0806,-4.7326e-05,-5.894e-05,0.0,0 STARLINK-5933,1 55961U 23037AZ  23219.19131391 -.00005894  00000-0 -47326-4 0  9990,2 55961  70.0008 140.6279 0002751 280.0079  80.0806 15.69904430 22886,6737.307,91.725,361.026,357.319,0.0
55961.0,STARLINK-5933,PAYLOAD,2023-08-07 12:14:14,15.69929469,0.0003622,70.0006,139.7318,274.6458,85.4324,3.0365e-05,3.441e-05,0.0,0 STARLINK-5933,1 55961U 23037AZ  23219.50988961  .00003441  00000-0  30365-4 0  9997,2 55961  70.0006 139.7318 0003622 274.6458  85.4324 15.69929469 22934,6737.236,91.724,361.541,356.661,0.0
55961.0,STARLINK-5933,PAYLOAD,2023-08-09 03:59:48,15.69923344,0.0002807,70.0001,135.0728,277.874,82.2137,3.2969e-05,3.753e-05,0.0,0 STARLINK-5933,1 55961U 23037AZ  23221.16652872  .00003753  00000-0  32969-4 0  9999,2 55961  70.0001 135.0728 0002807 277.8740  82.2137 15.69923344 23198,6737.253,91.724,361.009,357.227,0.0
55961.0,STARLINK-5933,PAYLOAD,2023-08-10 04:27:49,15.69931256,0.0003243,70.0001,132.2082,261.5583,98.5245,4.2687e-05,4.924e-05,0.0,0 STARLINK-5933,1 55961U 23037AZ  23222.18599152  .00004924  00000-0  42687-4 0  9992,2 55961  70.0001 132.2082 0003243 261.5583  98.5245 15.69931256 23359,6737.231,91.724,361.281,356.911,0.0
55961.0,STARLINK-5933,PAYLOAD,2023-08-10 18:13:35,15.69924563,0.0003264,69.9976,130.5949,262.197,97.8855,4.6522e-05,5.385e-05,0.0,0 STARLINK-5933,1 55961U 23037AZ  23222.75944319  .00005385  00000-0  46522-4 0  9998,2 55961  69.9976 130.5949 0003264 262.1970  97.8855 15.69924563 23442,6737.25,91.724,361.314,356.916,0.0
55961.0,STARLINK-5933,PAYLOAD,2023-08-11 18:41:38,15.69919913,0.0003416,70.0011,127.7299,263.6743,96.4063,7.1298e-07,-1.27e-06,0.0,0 STARLINK-5933,1 55961U 23037AZ  23223.77891245 -.00000127  00000-0  71298-6 0  9990,2 55961  70.0011 127.7299 0003416 263.6743  96.4063 15.69919913 23601,6737.263,91.724,361.43,356.827,0.0
55961.0,STARLINK-5933,PAYLOAD,2023-08-12 02:20:23,15.69930777,0.000304,69.9981,126.8323,259.9732,100.1121,2.1675e-05,2.395e-05,0.0,0 STARLINK-5933,1 55961U 23037AZ  23224.09749201  .00002395  00000-0  21675-4 0  9990,2 55961  69.9981 126.8323 0003040 259.9732 100.1121 15.69930777 23655,6737.232,91.724,361.145,357.049,0.0
55961.0,STARLINK-5933,PAYLOAD,2023-08-12 23:44:55,15.69928559,0.0003483,69.9994,124.326,267.6957,92.384,1.4848e-05,1.573e-05,0.0,0 STARLINK-5933,1 55961U 23037AZ  23224.98952593  .00001573  00000-0  14848-4 0  9999,2 55961  69.9994 124.3260 0003483 267.6957  92.3840 15.69928559 23798,6737.238,91.724,361.45,356.757,0.0
55961.0,STARLINK-5933,PAYLOAD,2023-08-13 19:37:41,15.69925861,0.0003606,69.9977,121.9986,273.3614,86.7169,1.193e-06,-6.9e-07,0.0,0 STARLINK-5933,1 55961U 23037AZ  23225.81784547 -.00000069  00000-0  11930-5 0  9994,2 55961  69.9977 121.9986 0003606 273.3614  86.7169 15.69925861 23927,6737.246,91.724,361.541,356.682,0.0
55961.0,STARLINK-5933,PAYLOAD,2023-08-15 02:12:44,15.69930589,0.0003578,69.9984,118.4143,266.4097,93.669,1.9619e-05,2.147e-05,0.0,0 STARLINK-5933,1 55961U 23037AZ  23227.09217755  .00002147  00000-0  19619-4 0  9997,2 55961  69.9984 118.4143 0003578 266.4097  93.6690 15.69930589 24129,6737.233,91.724,361.508,356.687,0.0
55961.0,STARLINK-5933,PAYLOAD,2023-08-15 15:58:30,15.69925031,0.0003394,69.9983,116.8037,268.7491,91.3316,6.4089e-06,5.58e-06,0.0,0 STARLINK-5933,1 55961U 23037AZ  23227.66563135  .00000558  00000-0  64089-5 0  9992,2 55961  69.9983 116.8037 0003394 268.7491  91.3316 15.69925031 24217,6737.248,91.724,361.4,356.827,0.0
55961.0,STARLINK-5933,PAYLOAD,2023-08-16 22:33:32,15.6993073,0.0003508,69.9956,113.2177,263.1757,96.904,7.1139e-06,6.43e-06,0.0,0 STARLINK-5933,1 55961U 23037AZ  23228.93996370  .00000643  00000-0  71139-5 0  9993,2 55961  69.9956 113.2177 0003508 263.1757  96.9040 15.69930730 24413,6737.232,91.724,361.461,356.734,0.0
55961.0,STARLINK-5933,PAYLOAD,2023-08-17 15:22:48,15.69959561,0.0003418,69.9965,111.2474,262.877,97.2038,-0.00011185,-0.0001366,0.0,0 STARLINK-5933,1 55961U 23037AZ  23229.64083425 -.00013660  00000-0 -11185-3 0  9998,2 55961  69.9965 111.2474 0003418 262.8770  97.2038 15.69959561 24528,6737.15,91.722,361.317,356.712,0.0
55961.0,STARLINK-5933,PAYLOAD,2023-08-18 02:05:04,15.69936909,0.0003198,69.995,109.9925,262.3773,97.706,-1.8898e-05,-2.486e-05,0.0,0 STARLINK-5933,1 55961U 23037AZ  23230.08686298 -.00002486  00000-0 -18898-4 0  9998,2 55961  69.9950 109.9925 0003198 262.3773  97.7060 15.69936909 24598,6737.215,91.723,361.234,356.925,0.0
55961.0,STARLINK-5933,PAYLOAD,2023-08-19 01:01:22,15.69926737,0.0003175,69.9963,107.3064,265.0765,95.0068,1.0347e-05,1.032e-05,0.0,0 STARLINK-5933,1 55961U 23037AZ  23231.04261686  .00001032  00000-0  10347-4 0  9990,2 55961  69.9963 107.3064 0003175 265.0765  95.0068 15.69926737 24748,6737.244,91.724,361.248,356.97,0.0
55961.0,STARLINK-5933,PAYLOAD,2023-08-19 19:22:24,15.69920698,0.0003555,69.9969,105.156,268.7034,91.3755,4.3323e-06,3.08e-06,0.0,0 STARLINK-5933,1 55961U 23037AZ  23231.80722247  .00000308  00000-0  43323-5 0  9995,2 55961  69.9969 105.1560 0003555 268.7034  91.3755 15.69920698 24867,6737.261,91.724,361.521,356.731,0.0
55961.0,STARLINK-5933,PAYLOAD,2023-08-20 18:18:41,15.69840505,0.0002975,69.999,102.47,274.7574,85.3282,0.00014642,0.00017368,0.0,0 STARLINK-5933,1 55961U 23037AZ  23232.76298235  .00017368  00000-0  14642-3 0  9990,2 55961  69.9990 102.4700 0002975 274.7574  85.3282 15.69840505 25012,6737.49,91.729,361.36,357.351,0.0
55961.0,STARLINK-5933,PAYLOAD,2023-08-21 01:57:26,15.6991637,0.0002254,69.9989,101.5746,276.533,83.5609,3.6119e-05,4.131e-05,0.0,0 STARLINK-5933,1 55961U 23037AZ  23233.08155663  .00004131  00000-0  36119-4 0  9991,2 55961  69.9989 101.5746 0002254 276.5330  83.5609 15.69916370 25062,6737.273,91.725,360.657,357.62,0.0
55961.0,STARLINK-5933,PAYLOAD,2023-08-22 00:53:43,15.69915871,0.0003154,69.9976,98.8863,270.3968,89.6866,4.9878e-06,3.87e-06,0.0,0 STARLINK-5933,1 55961U 23037AZ  23234.03731234  .00000387  00000-0  49878-5 0  9997,2 55961  69.9976  98.8863 0003154 270.3968  89.6866 15.69915871 25219,6737.275,91.725,361.265,357.015,0.0
55961.0,STARLINK-5933,PAYLOAD,2023-08-23 01:21:45,15.69930177,0.000301,69.9982,96.0226,267.8382,92.2469,2.177e-06,4.9e-07,0.0,0 STARLINK-5933,1 55961U 23037AZ  23235.05677271  .00000049  00000-0  21770-5 0  9996,2 55961  69.9982  96.0226 0003010 267.8382  92.2469 15.69930177 25373,6737.234,91.724,361.127,357.071,0.0
55961.0,STARLINK-5933,PAYLOAD,2023-08-24 11:00:17,15.69922656,0.0003368,69.998,92.0788,268.0188,92.0622,2.2775e-05,2.526e-05,0.0,0 STARLINK-5933,1 55961U 23037AZ  23236.45854069  .00002526  00000-0  22775-4 0  9990,2 55961  69.9980  92.0788 0003368 268.0188  92.0622 15.69922656 25252,6737.255,91.724,361.389,356.851,0.0
55961.0,STARLINK-5933,PAYLOAD,2023-08-24 23:14:18,15.69929577,0.0003838,69.9976,90.6465,260.9228,99.1533,1.3366e-05,1.395e-05,0.0,0 STARLINK-5933,1 55961U 23037AZ  23236.96826918  .00001395  00000-0  13366-4 0  9997,2 55961  69.9976  90.6465 0003838 260.9228  99.1533 15.69929577 25338,6737.235,91.724,361.686,356.515,0.0
55961.0,STARLINK-5933,PAYLOAD,2023-08-25 17:35:20,15.69911949,0.0003684,69.9977,88.4966,259.7057,100.3724,2.2325e-05,2.471e-05,0.0,0 STARLINK-5933,1 55961U 23037AZ  23237.73287909  .00002471  00000-0  22325-4 0  9995,2 55961  69.9977  88.4966 0003684 259.7057 100.3724 15.69911949 25796,6737.286,91.725,361.633,356.669,0.0
55961.0,STARLINK-5933,PAYLOAD,2023-08-26 18:03:22,15.69923873,0.0003211,69.9969,85.6276,250.2379,109.8471,7.2031e-06,6.53e-06,0.0,0 STARLINK-5933,1 55961U 23037AZ  23238.75234349  .00000653  00000-0  72031-5 0  9998,2 55961  69.9969  85.6276 0003211 250.2379 109.8471 15.69923873 25959,6737.252,91.724,361.28,356.953,0.0
55961.0,STARLINK-5933,PAYLOAD,2023-08-27 00:10:22,15.69923527,0.0003589,69.9967,84.9107,259.0861,100.9931,1.2299e-05,1.266e-05,0.0,0 STARLINK-5933,1 55961U 23037AZ  23239.00720931  .00001266  00000-0  12299-4 0  9994,2 55961  69.9967  84.9107 0003589 259.0861 100.9931 15.69923527 25659,6737.253,91.724,361.536,356.7,0.0
55961.0,STARLINK-5933,PAYLOAD,2023-08-27 16:59:39,15.6992479,0.000355,69.9965,82.9396,258.4103,101.6694,1.0172e-05,1.01e-05,0.0,0 STARLINK-5933,1 55961U 23037AZ  23239.70809319  .00001010  00000-0  10172-4 0  9994,2 55961  69.9965  82.9396 0003550 258.4103 101.6694 15.69924790 25764,6737.249,91.724,361.506,356.722,0.0
55961.0,STARLINK-5933,PAYLOAD,2023-08-27 23:06:33,15.70012386,0.0003379,69.9974,82.2249,245.9486,114.1356,0.0001098,0.00013058,0.0,0 STARLINK-5933,1 55961U 23037AZ  23239.96289187  .00013058  00000-0  10980-3 0  9998,2 55961  69.9974  82.2249 0003379 245.9486 114.1356 15.70012386 26146,6736.999,91.719,361.14,356.587,0.0
55961.0,STARLINK-5933,PAYLOAD,2023-08-28 06:45:02,15.70201583,0.0003072,69.9975,81.3283,287.2342,72.8517,0.00031833,0.00038682,0.0,0 STARLINK-5933,1 55961U 23037AZ  23240.28128451  .00038682  00000-0  31833-3 0  9991,2 55961  69.9975  81.3283 0003072 287.2342  72.8517 15.70201583 26198,6736.457,91.708,360.392,356.253,0.0
55961.0,STARLINK-5933,PAYLOAD,2023-08-28 15:55:56,15.69924354,0.0003262,69.996,80.2519,254.9681,105.1154,1.1952e-05,1.225e-05,0.0,0 STARLINK-5933,1 55961U 23037AZ  23240.66384443  .00001225  00000-0  11952-4 0  9992,2 55961  69.9960  80.2519 0003262 254.9681 105.1154 15.69924354 26250,6737.25,91.724,361.313,356.918,0.0
